CCSDS_OMM_VERS = 2.0
CREATION_DATE  = 
ORIGINATOR     = 

OBJECT_NAME    = RSP-03
OBJECT_ID      = 1998-067XL
CENTER_NAME    = EARTH
REF_FRAME      = TEME
TIME_SYSTEM    = UTC
MEAN_ELEMENT_THEORY = SGP/SGP4

EPOCH          = 2026-02-16T06:42:30.445920
MEAN_MOTION    = 16.39378610
ECCENTRICITY   = .0006246
INCLINATION    = 51.6061
RA_OF_ASC_NODE = 154.7117
ARG_OF_PERICENTER = 319.9198
MEAN_ANOMALY   = 40.1367

EPHEMERIS_TYPE = 0
CLASSIFICATION_TYPE = U
NORAD_CAT_ID   = 65732
ELEMENT_SET_NO = 999
REV_AT_EPOCH   = 2355
BSTAR          = .79249151E-3
MEAN_MOTION_DOT = .10199253E+0
MEAN_MOTION_DDOT = .1246002E-4

CCSDS_OMM_VERS = 2.0
CREATION_DATE  = 
ORIGINATOR     = 

OBJECT_NAME    = YOTSUBA-KULOVER
OBJECT_ID      = 1998-067XN
CENTER_NAME    = EARTH
REF_FRAME      = TEME
TIME_SYSTEM    = UTC
MEAN_ELEMENT_THEORY = SGP/SGP4

EPOCH          = 2026-02-16T06:40:32.853792
MEAN_MOTION    = 15.72990868
ECCENTRICITY   = .00047687
INCLINATION    = 51.6248
RA_OF_ASC_NODE = 167.6639
ARG_OF_PERICENTER = 313.2285
MEAN_ANOMALY   = 46.8315

EPHEMERIS_TYPE = 0
CLASSIFICATION_TYPE = U
NORAD_CAT_ID   = 65941
ELEMENT_SET_NO = 999
REV_AT_EPOCH   = 2012
BSTAR          = .1079098E-2
MEAN_MOTION_DOT = .152565E-2
MEAN_MOTION_DDOT = 0

CCSDS_OMM_VERS = 2.0
CREATION_DATE  = 
ORIGINATOR     = 

OBJECT_NAME    = BOTAN
OBJECT_ID      = 1998-067XP
CENTER_NAME    = EARTH
REF_FRAME      = TEME
TIME_SYSTEM    = UTC
MEAN_ELEMENT_THEORY = SGP/SGP4

EPOCH          = 2026-02-16T06:26:39.016896
MEAN_MOTION    = 15.90597587
ECCENTRICITY   = .00089867
INCLINATION    = 51.6161
RA_OF_ASC_NODE = 163.0304
ARG_OF_PERICENTER = 334.3065
MEAN_ANOMALY   = 25.7493

EPHEMERIS_TYPE = 0
CLASSIFICATION_TYPE = U
NORAD_CAT_ID   = 65942
ELEMENT_SET_NO = 999
REV_AT_EPOCH   = 2018
BSTAR          = .15639178E-2
MEAN_MOTION_DOT = .493576E-2
MEAN_MOTION_DDOT = .10401136E-3

CCSDS_OMM_VERS = 2.0
CREATION_DATE  = 
ORIGINATOR     = 

OBJECT_NAME    = E-KAGAKU-1
OBJECT_ID      = 1998-067XQ
CENTER_NAME    = EARTH
REF_FRAME      = TEME
TIME_SYSTEM    = UTC
MEAN_ELEMENT_THEORY = SGP/SGP4

EPOCH          = 2026-02-15T12:24:34.007328
MEAN_MOTION    = 15.72633938
ECCENTRICITY   = .00046419
INCLINATION    = 51.6274
RA_OF_ASC_NODE = 171.5949
ARG_OF_PERICENTER = 322.6384
MEAN_ANOMALY   = 37.4291

EPHEMERIS_TYPE = 0
CLASSIFICATION_TYPE = U
NORAD_CAT_ID   = 65943
ELEMENT_SET_NO = 999
REV_AT_EPOCH   = 2000
BSTAR          = .11758444E-2
MEAN_MOTION_DOT = .163999E-2
MEAN_MOTION_DDOT = 0

CCSDS_OMM_VERS = 2.0
CREATION_DATE  = 
ORIGINATOR     = 

OBJECT_NAME    = HRC MONOBLOCK CAMERA
OBJECT_ID      = 1998-067XR
CENTER_NAME    = EARTH
REF_FRAME      = TEME
TIME_SYSTEM    = UTC
MEAN_ELEMENT_THEORY = SGP/SGP4

EPOCH          = 2026-02-15T13:10:56.393184
MEAN_MOTION    = 15.59873379
ECCENTRICITY   = .0001906
INCLINATION    = 51.6277
RA_OF_ASC_NODE = 177.0654
ARG_OF_PERICENTER = 11.5180
MEAN_ANOMALY   = 348.5856

EPHEMERIS_TYPE = 0
CLASSIFICATION_TYPE = U
NORAD_CAT_ID   = 66052
ELEMENT_SET_NO = 999
REV_AT_EPOCH   = 1893
BSTAR          = .63608E-3
MEAN_MOTION_DOT = .52002E-3
MEAN_MOTION_DDOT = 0

CCSDS_OMM_VERS = 2.0
CREATION_DATE  = 
ORIGINATOR     = 

OBJECT_NAME    = HTV-X1
OBJECT_ID      = 2025-241A
CENTER_NAME    = EARTH
REF_FRAME      = TEME
TIME_SYSTEM    = UTC
MEAN_ELEMENT_THEORY = SGP/SGP4

EPOCH          = 2026-02-16T05:09:28.757088
MEAN_MOTION    = 15.48638586
ECCENTRICITY   = .00110177
INCLINATION    = 51.6319
RA_OF_ASC_NODE = 178.5071
ARG_OF_PERICENTER = 103.7643
MEAN_ANOMALY   = 256.4573

EPHEMERIS_TYPE = 0
CLASSIFICATION_TYPE = U
NORAD_CAT_ID   = 66174
ELEMENT_SET_NO = 999
REV_AT_EPOCH   = 51
BSTAR          = .19659974E-3
MEAN_MOTION_DOT = .10277E-3
MEAN_MOTION_DDOT = 0

CCSDS_OMM_VERS = 2.0
CREATION_DATE  = 
ORIGINATOR     = 

OBJECT_NAME    = SZ-21 MODULE
OBJECT_ID      = 2025-246C
CENTER_NAME    = EARTH
REF_FRAME      = TEME
TIME_SYSTEM    = UTC
MEAN_ELEMENT_THEORY = SGP/SGP4

EPOCH          = 2026-02-16T03:48:48.404448
MEAN_MOTION    = 15.66881556
ECCENTRICITY   = .00020652
INCLINATION    = 41.4767
RA_OF_ASC_NODE = 335.7274
ARG_OF_PERICENTER = 297.2622
MEAN_ANOMALY   = 62.8008

EPHEMERIS_TYPE = 0
CLASSIFICATION_TYPE = U
NORAD_CAT_ID   = 66515
ELEMENT_SET_NO = 999
REV_AT_EPOCH   = 1469
BSTAR          = .33419503E-3
MEAN_MOTION_DOT = .36256E-3
MEAN_MOTION_DDOT = 0

CCSDS_OMM_VERS = 2.0
CREATION_DATE  = 
ORIGINATOR     = 

OBJECT_NAME    = SHENZHOU-22
OBJECT_ID      = 2025-272A
CENTER_NAME    = EARTH
REF_FRAME      = TEME
TIME_SYSTEM    = UTC
MEAN_ELEMENT_THEORY = SGP/SGP4

EPOCH          = 2026-02-16T06:31:07.923936
MEAN_MOTION    = 15.59714747
ECCENTRICITY   = .000412
INCLINATION    = 41.4685
RA_OF_ASC_NODE = 338.3898
ARG_OF_PERICENTER = 112.5998
MEAN_ANOMALY   = 247.5276

EPHEMERIS_TYPE = 0
CLASSIFICATION_TYPE = U
NORAD_CAT_ID   = 66645
ELEMENT_SET_NO = 999
REV_AT_EPOCH   = 26764
BSTAR          = .35110354E-3
MEAN_MOTION_DOT = .28663E-3
MEAN_MOTION_DDOT = 0

CCSDS_OMM_VERS = 2.0
CREATION_DATE  = 
ORIGINATOR     = 

OBJECT_NAME    = SOYUZ-MS 28
OBJECT_ID      = 2025-275A
CENTER_NAME    = EARTH
REF_FRAME      = TEME
TIME_SYSTEM    = UTC
MEAN_ELEMENT_THEORY = SGP/SGP4

EPOCH          = 2026-02-16T05:09:28.757088
MEAN_MOTION    = 15.48638586
ECCENTRICITY   = .00110177
INCLINATION    = 51.6319
RA_OF_ASC_NODE = 178.5071
ARG_OF_PERICENTER = 103.7643
MEAN_ANOMALY   = 256.4573

EPHEMERIS_TYPE = 0
CLASSIFICATION_TYPE = U
NORAD_CAT_ID   = 66664
ELEMENT_SET_NO = 999
REV_AT_EPOCH   = 128
BSTAR          = .19659974E-3
MEAN_MOTION_DOT = .10277E-3
MEAN_MOTION_DDOT = 0

CCSDS_OMM_VERS = 2.0
CREATION_DATE  = 
ORIGINATOR     = 

OBJECT_NAME    = DUPLEX
OBJECT_ID      = 1998-067XS
CENTER_NAME    = EARTH
REF_FRAME      = TEME
TIME_SYSTEM    = UTC
MEAN_ELEMENT_THEORY = SGP/SGP4

EPOCH          = 2026-02-15T13:10:26.316480
MEAN_MOTION    = 15.54659090
ECCENTRICITY   = .0001408
INCLINATION    = 51.6292
RA_OF_ASC_NODE = 180.0635
ARG_OF_PERICENTER = 71.9206
MEAN_ANOMALY   = 288.1938

EPHEMERIS_TYPE = 0
CLASSIFICATION_TYPE = U
NORAD_CAT_ID   = 66906
ELEMENT_SET_NO = 999
REV_AT_EPOCH   = 1168
BSTAR          = .52648E-3
MEAN_MOTION_DOT = .35209E-3
MEAN_MOTION_DDOT = 0

CCSDS_OMM_VERS = 2.0
CREATION_DATE  = 
ORIGINATOR     = 

OBJECT_NAME    = ISS OBJECT XT
OBJECT_ID      = 1998-067XT
CENTER_NAME    = EARTH
REF_FRAME      = TEME
TIME_SYSTEM    = UTC
MEAN_ELEMENT_THEORY = SGP/SGP4

EPOCH          = 2026-02-15T18:11:04.359840
MEAN_MOTION    = 15.63239154
ECCENTRICITY   = .00022893
INCLINATION    = 51.6272
RA_OF_ASC_NODE = 176.9534
ARG_OF_PERICENTER = 311.2499
MEAN_ANOMALY   = 48.8298

EPHEMERIS_TYPE = 0
CLASSIFICATION_TYPE = U
NORAD_CAT_ID   = 66907
ELEMENT_SET_NO = 999
REV_AT_EPOCH   = 1174
BSTAR          = .13778209E-2
MEAN_MOTION_DOT = .130306E-2
MEAN_MOTION_DDOT = 0

CCSDS_OMM_VERS = 2.0
CREATION_DATE  = 
ORIGINATOR     = 

OBJECT_NAME    = ISS OBJECT XU
OBJECT_ID      = 1998-067XU
CENTER_NAME    = EARTH
REF_FRAME      = TEME
TIME_SYSTEM    = UTC
MEAN_ELEMENT_THEORY = SGP/SGP4

EPOCH          = 2026-02-15T21:14:07.979712
MEAN_MOTION    = 15.63307535
ECCENTRICITY   = .0002288
INCLINATION    = 51.6262
RA_OF_ASC_NODE = 176.2997
ARG_OF_PERICENTER = 320.0129
MEAN_ANOMALY   = 40.0697

EPHEMERIS_TYPE = 0
CLASSIFICATION_TYPE = U
NORAD_CAT_ID   = 66908
ELEMENT_SET_NO = 999
REV_AT_EPOCH   = 1176
BSTAR          = .12809E-2
MEAN_MOTION_DOT = .121295E-2
MEAN_MOTION_DDOT = 0

