RSP-03                  
1 65732U 98067XL  26047.27951905  .10199253  12460-4  79249-3 0  9991
2 65732  51.6061 154.7117 0006246 319.9198  40.1367 16.39378610 23558
YOTSUBA-KULOVER         
1 65941U 98067XN  26047.27815803  .00152565  00000+0  10791-2 0  9991
2 65941  51.6248 167.6639 0004768 313.2285  46.8315 15.72990868 20127
BOTAN                   
1 65942U 98067XP  26047.26850714  .00493576  10401-3  15639-2 0  9997
2 65942  51.6161 163.0304 0008986 334.3065  25.7493 15.90597587 20187
E-KAGAKU-1              
1 65943U 98067XQ  26046.51706027  .00163999  00000+0  11758-2 0  9993
2 65943  51.6274 171.5949 0004641 322.6384  37.4291 15.72633938 20008
HRC MONOBLOCK CAMERA    
1 66052U 98067XR  26046.54926381  .00052002  00000+0  63608-3 0  9999
2 66052  51.6277 177.0654 0001906  11.5180 348.5856 15.59873379 18938
HTV-X1                  
1 66174U 25241A   26047.21491617  .00010277  00000+0  19660-3 0  9999
2 66174  51.6319 178.5071 0011017 103.7643 256.4573 15.48638586   516
SZ-21 MODULE            
1 66515U 25246C   26047.15889357  .00036256  00000+0  33420-3 0  9993
2 66515  41.4767 335.7274 0002065 297.2622  62.8008 15.66881556 14693
SHENZHOU-22             
1 66645U 25272A   26047.27161949  .00028663  00000+0  35110-3 0  9990
2 66645  41.4685 338.3898 0004120 112.5998 247.5276 15.59714747267649
SOYUZ-MS 28             
1 66664U 25275A   26047.21491617  .00010277  00000+0  19660-3 0  9990
2 66664  51.6319 178.5071 0011017 103.7643 256.4573 15.48638586  1285
DUPLEX                  
1 66906U 98067XS  26046.54891570  .00035209  00000+0  52648-3 0  9990
2 66906  51.6292 180.0635 0001408  71.9206 288.1938 15.54659090 11684
ISS OBJECT XT           
1 66907U 98067XT  26046.75768935  .00130306  00000+0  13778-2 0  9996
2 66907  51.6272 176.9534 0002289 311.2499  48.8298 15.63239154 11749
ISS OBJECT XU           
1 66908U 98067XU  26046.88481458  .00121295  00000+0  12809-2 0  9994
2 66908  51.6262 176.2997 0002288 320.0129  40.0697 15.63307535 11760
